{"type": "FeatureCollection", "features": [ {"type": "Feature", "properties": {"norad_id": 64901, "name": "CO3D 4", "group": "resource", "lat": 62.60063790937485, "lon": -110.02638591951607, "alt_km": 499.4584764532283, "timestamp": "2025-12-04T21:36:15.532404+00:00", "meta": {"OBJECT_NAME": "CO3D 4", "OBJECT_ID": "2025-156C", "EPOCH": "2025-12-01T18:50:45.474720", "MEAN_MOTION": 15.20204195, "ECCENTRICITY": 0.00012108, "INCLINATION": 97.4354, "RA_OF_ASC_NODE": 52.3098, "ARG_OF_PERICENTER": 238.3057, "MEAN_ANOMALY": 121.806, "EPHEMERIS_TYPE": 0, "CLASSIFICATION_TYPE": "U", "NORAD_CAT_ID": 64901, "ELEMENT_SET_NO": 999, "REV_AT_EPOCH": 1954, "BSTAR": -1.4420799e-05, "MEAN_MOTION_DOT": -3.8e-06, "MEAN_MOTION_DDOT": 0}, "tle": {"line1": "1 64901U 25156C   25335.78524855 -.00000380  00000+0 -14421-4 0  9999", "line2": "2 64901  97.4354  52.3098 0001210 238.3057 121.8060 15.20204195 19549"}}, "geometry": {"type": "Point", "coordinates": [-110.02638591951607, 62.60063790937485]}}, {"type": "Feature", "properties": {"norad_id": 64902, "name": "CO3D 2", "group": "resource", "lat": -60.42726232924923, "lon": 68.58308727638584, "alt_km": 512.8997792714972, "timestamp": "2025-12-04T21:36:15.532414+00:00", "meta": {"OBJECT_NAME": "CO3D 2", "OBJECT_ID": "2025-156D", "EPOCH": "2025-12-04T15:33:16.781760", "MEAN_MOTION": 15.20211394, "ECCENTRICITY": 8.313e-05, "INCLINATION": 97.4347, "RA_OF_ASC_NODE": 55.0302, "ARG_OF_PERICENTER": 106.1833, "MEAN_ANOMALY": 253.9494, "EPHEMERIS_TYPE": 0, "CLASSIFICATION_TYPE": "U", "NORAD_CAT_ID": 64902, "ELEMENT_SET_NO": 999, "REV_AT_EPOCH": 1997, "BSTAR": 0.0013082277, "MEAN_MOTION_DOT": 0.00028369, "MEAN_MOTION_DDOT": 0}, "tle": {"line1": "1 64902U 25156D   25338.64811090  .00028369  00000+0  13082-2 0  9993", "line2": "2 64902  97.4347  55.0302 0000831 106.1833 253.9494 15.20211394 19976"}}, "geometry": {"type": "Point", "coordinates": [68.58308727638584, -60.42726232924923]}}, {"type": "Feature", "properties": {"norad_id": 64903, "name": "CO3D 1", "group": "resource", "lat": -61.24039528233207, "lon": 69.04394448903471, "alt_km": 513.0166957750498, "timestamp": "2025-12-04T21:36:15.532424+00:00", "meta": {"OBJECT_NAME": "CO3D 1", "OBJECT_ID": "2025-156E", "EPOCH": "2025-12-04T15:33:30.046752", "MEAN_MOTION": 15.20206396, "ECCENTRICITY": 9.211e-05, "INCLINATION": 97.435, "RA_OF_ASC_NODE": 55.0307, "ARG_OF_PERICENTER": 111.1544, "MEAN_ANOMALY": 248.979, "EPHEMERIS_TYPE": 0, "CLASSIFICATION_TYPE": "U", "NORAD_CAT_ID": 64903, "ELEMENT_SET_NO": 999, "REV_AT_EPOCH": 1997, "BSTAR": 0.00079691369, "MEAN_MOTION_DOT": 0.00017226, "MEAN_MOTION_DDOT": 0}, "tle": {"line1": "1 64903U 25156E   25338.64826443  .00017226  00000+0  79691-3 0  9991", "line2": "2 64903  97.4350  55.0307 0000921 111.1544 248.9790 15.20206396 19970"}}, "geometry": {"type": "Point", "coordinates": [69.04394448903471, -61.24039528233207]}}, {"type": "Feature", "properties": {"norad_id": 66514, "name": "SENTINEL-6B", "group": "resource", "lat": -57.28349252520994, "lon": 42.587056132527835, "alt_km": 1315.8404679588775, "timestamp": "2025-12-04T21:36:15.532434+00:00", "meta": {"OBJECT_NAME": "SENTINEL-6B", "OBJECT_ID": "2025-264A", "EPOCH": "2025-12-04T14:43:24.145824", "MEAN_MOTION": 12.85877672, "ECCENTRICITY": 0.00115411, "INCLINATION": 66.039, "RA_OF_ASC_NODE": 179.3839, "ARG_OF_PERICENTER": 268.4634, "MEAN_ANOMALY": 91.5062, "EPHEMERIS_TYPE": 0, "CLASSIFICATION_TYPE": "U", "NORAD_CAT_ID": 66514, "ELEMENT_SET_NO": 999, "REV_AT_EPOCH": 224, "BSTAR": 0.00029612691, "MEAN_MOTION_DOT": 1.1e-07, "MEAN_MOTION_DDOT": 0}, "tle": {"line1": "1 66514U 25264A   25338.61347391  .00000011  00000+0  29613-3 0  9991", "line2": "2 66514  66.0390 179.3839 0011541 268.4634  91.5062 12.85877672  2247"}}, "geometry": {"type": "Point", "coordinates": [42.587056132527835, -57.28349252520994]}}]}